IRIDIUM 155             
1 43573U 18061E   24176.58831555  .00000104  00000+0  29904-4 0  9990
2 43573  86.3971 358.6641 0002234  95.6874 264.4577 14.34217927309783
IRIDIUM 154             
1 43574U 18061F   24176.56928722 -.00000024  00000+0 -15482-4 0  9991
2 43574  86.3972 358.7701 0001915  84.5051 275.6363 14.34217433309837
IRIDIUM 163             
1 43575U 18061G   24176.55025907  .00000017  00000+0 -82187-6 0  9993
2 43575  86.3969 358.7160 0002004  91.3750 268.7676 14.34217848309802
IRIDIUM 156             
1 43576U 18061H   24176.87373063  .00000273  00000+0  90281-4 0  9993
2 43576  86.3974 358.5872 0002308  90.6124 269.5336 14.34218234309836
IRIDIUM 164             
1 43577U 18061J   24176.57562964  .00000149  00000+0  46166-4 0  9996
2 43577  86.3974 358.7408 0002282  81.6900 278.4554 14.34218577309849
IRIDIUM 159             
1 43578U 18061K   24176.54391599  .00000103  00000+0  29601-4 0  9993
2 43578  86.3972 358.7061 0002034  82.8632 277.2795 14.34218136309804
IRIDIUM 180             
1 43922U 19002A   24176.82248782  .00000054  00000+0  12179-4 0  9995
2 43922  86.3965 295.4687 0002094  93.6910 266.4525 14.34217892285492
IRIDIUM 176             
1 43923U 19002B   24176.39039969  .00001287  00000+0  20013-3 0  9997
2 43923  86.6092 295.6702 0002356  88.0048 272.1439 14.72256724292909
IRIDIUM 168             
1 43924U 19002C   24176.81614565  .00000114  00000+0  33755-4 0  9992
2 43924  86.3966 295.5281 0002281  92.4690 267.6767 14.34218109285433
IRIDIUM 173             
1 43925U 19002D   24176.87322836  .00000004  00000+0 -55006-5 0  9999
2 43925  86.3958 295.4227 0002022  91.9118 268.2309 14.34217666285432
IRIDIUM 169             
1 43926U 19002E   24176.49840329  .00000444  00000+0  13864-3 0  9991
2 43926  86.4227 327.2070 0002175 149.4180 210.7145 14.38611197286320
IRIDIUM 172             
1 43927U 19002F   24176.37850692  .00000050  00000+0  10857-4 0  9996
2 43927  86.3963 295.6354 0002205  90.6948 269.4500 14.34217750285365
IRIDIUM 175             
1 43928U 19002G   24176.31675522  .00001284  00000+0  19970-3 0  9992
2 43928  86.1507 268.4371 0001990 101.2717 258.8723 14.72248835292882
IRIDIUM 171             
1 43929U 19002H   24176.42924798  .00000085  00000+0  23315-4 0  9994
2 43929  86.3974 295.8406 0002363  90.8845 269.2622 14.34217670285366
IRIDIUM 170             
1 43930U 19002J   24176.87236172  .00000151  00000+0  20088-4 0  9995
2 43930  86.6094 295.4735 0002209  92.7206 267.4264 14.72253235292983
IRIDIUM 167             
1 43931U 19002K   24176.35313563  .00000084  00000+0  23006-4 0  9997
2 43931  86.3963 295.6620 0002249  94.3805 265.7647 14.34218123285352
IRIDIUM 181             
1 56726U 23068S   24176.52392092  .00000429  00000+0  12102-3 0  9990
2 56726  86.8638 349.6807 0002416  94.1913 265.9565 14.43568018 58195
IRIDIUM 177             
1 56727U 23068T   24176.45859447  .00001728  00000+0  22385-3 0  9992
2 56727  86.1974 311.9066 0002705  87.0585 273.0945 14.80231926 59456
IRIDIUM 174             
1 56728U 23068U   24176.45316240  .00001754  00000+0  22741-3 0  9997
2 56728  86.1980 312.0136 0002265  96.1838 263.9641 14.80231439 59457
IRIDIUM 178             
1 56729U 23068V   24176.85334567  .00000683  00000+0  86424-4 0  9993
2 56729  86.5783 329.6520 0001806  92.3324 267.8104 14.80243893 59513
IRIDIUM 179             
1 56730U 23068W   24176.44234552  .00001644  00000+0  21290-3 0  9990
2 56730  86.6792 334.0542 0002074  96.0051 264.1407 14.80242811 59454
